[{"OBJECT_NAME":"YAOGAN-39 02A","OBJECT_ID":"2023-145A","EPOCH":"2026-03-09T13:29:31.975296","MEAN_MOTION":15.23019263,"ECCENTRICITY":0.0002832,"INCLINATION":35.0023,"RA_OF_ASC_NODE":106.9754,"ARG_OF_PERICENTER":165.4765,"MEAN_ANOMALY":194.6032,"EPHEMERIS_TYPE":0,"CLASSIFICATION_TYPE":"U","NORAD_CAT_ID":57886,"ELEMENT_SET_NO":999,"REV_AT_EPOCH":13797,"BSTAR":0.00057738,"MEAN_MOTION_DOT":0.00013907,"MEAN_MOTION_DDOT":0},{"OBJECT_NAME":"STARLINK-30861","OBJECT_ID":"2023-171A","EPOCH":"2026-03-09T22:00:01.999584","MEAN_MOTION":15.22507727,"ECCENTRICITY":0.00017126,"INCLINATION":42.9995,"RA_OF_ASC_NODE":283.6227,"ARG_OF_PERICENTER":267.5987,"MEAN_ANOMALY":75.0186,"EPHEMERIS_TYPE":0,"CLASSIFICATION_TYPE":"U","NORAD_CAT_ID":58230,"ELEMENT_SET_NO":999,"REV_AT_EPOCH":572,"BSTAR":0.00089230355,"MEAN_MOTION_DOT":0.00020896,"MEAN_MOTION_DDOT":0}]
